{"type": "FeatureCollection", "features": [ {"type": "Feature", "properties": {"norad_id": 34529, "name": "IRIDIUM 33 DEB", "group": "iridium-33-debris", "lat": -20.40266030450793, "lon": 30.432853458732538, "alt_km": 765.8175284045847, "timestamp": "2025-12-21T05:44:51.972678+00:00", "meta": {"OBJECT_NAME": "IRIDIUM 33 DEB", "OBJECT_ID": "1997-051HW", "EPOCH": "2025-12-20T19:50:25.863936", "MEAN_MOTION": 14.4062162, "ECCENTRICITY": 0.00057731, "INCLINATION": 86.3633, "RA_OF_ASC_NODE": 31.9643, "ARG_OF_PERICENTER": 152.9902, "MEAN_ANOMALY": 207.1599, "EPHEMERIS_TYPE": 0, "CLASSIFICATION_TYPE": "U", "NORAD_CAT_ID": 34529, "ELEMENT_SET_NO": 999, "REV_AT_EPOCH": 88258, "BSTAR": 8.1123499e-05, "MEAN_MOTION_DOT": 2.79e-06, "MEAN_MOTION_DDOT": 0}, "tle": {"line1": "1 34529U 97051HW  25354.82668824  .00000279  00000+0  81123-4 0  9994", "line2": "2 34529  86.3633  31.9643 0005773 152.9902 207.1599 14.40621620882580"}}, "geometry": {"type": "Point", "coordinates": [30.432853458732538, -20.40266030450793]}}, {"type": "Feature", "properties": {"norad_id": 34538, "name": "IRIDIUM 33 DEB", "group": "iridium-33-debris", "lat": -59.089161095805984, "lon": -171.92228262558137, "alt_km": 745.1634151665512, "timestamp": "2025-12-21T05:44:51.972688+00:00", "meta": {"OBJECT_NAME": "IRIDIUM 33 DEB", "OBJECT_ID": "1997-051JF", "EPOCH": "2025-12-20T05:54:09.537408", "MEAN_MOTION": 14.42688568, "ECCENTRICITY": 0.00321834, "INCLINATION": 86.2759, "RA_OF_ASC_NODE": 2.2678, "ARG_OF_PERICENTER": 302.109, "MEAN_ANOMALY": 180.5468, "EPHEMERIS_TYPE": 0, "CLASSIFICATION_TYPE": "U", "NORAD_CAT_ID": 34538, "ELEMENT_SET_NO": 999, "REV_AT_EPOCH": 87864, "BSTAR": 0.00064183465, "MEAN_MOTION_DOT": 2.166e-05, "MEAN_MOTION_DDOT": 0}, "tle": {"line1": "1 34538U 97051JF  25354.24594372  .00002166  00000+0  64183-3 0  9999", "line2": "2 34538  86.2759   2.2678 0032183 302.1090 180.5468 14.42688568878646"}}, "geometry": {"type": "Point", "coordinates": [-171.92228262558137, -59.089161095805984]}}, {"type": "Feature", "properties": {"norad_id": 34540, "name": "IRIDIUM 33 DEB", "group": "iridium-33-debris", "lat": -38.05827566396347, "lon": 126.61532819880239, "alt_km": 649.6583421422738, "timestamp": "2025-12-21T05:44:51.972698+00:00", "meta": {"OBJECT_NAME": "IRIDIUM 33 DEB", "OBJECT_ID": "1997-051JH", "EPOCH": "2025-12-20T20:52:16.995360", "MEAN_MOTION": 14.75470808, "ECCENTRICITY": 0.00176753, "INCLINATION": 86.3107, "RA_OF_ASC_NODE": 303.8888, "ARG_OF_PERICENTER": 131.6109, "MEAN_ANOMALY": 282.9946, "EPHEMERIS_TYPE": 0, "CLASSIFICATION_TYPE": "U", "NORAD_CAT_ID": 34540, "ELEMENT_SET_NO": 999, "REV_AT_EPOCH": 89141, "BSTAR": 0.0010029574, "MEAN_MOTION_DOT": 6.861e-05, "MEAN_MOTION_DDOT": 0}, "tle": {"line1": "1 34540U 97051JH  25354.86964115  .00006861  00000+0  10030-2 0  9993", "line2": "2 34540  86.3107 303.8888 0017675 131.6109 282.9946 14.75470808891415"}}, "geometry": {"type": "Point", "coordinates": [126.61532819880239, -38.05827566396347]}}, {"type": "Feature", "properties": {"norad_id": 34648, "name": "IRIDIUM 33 DEB", "group": "iridium-33-debris", "lat": -34.05842916655967, "lon": 100.9591346340558, "alt_km": 789.4694727309934, "timestamp": "2025-12-21T05:44:51.972711+00:00", "meta": {"OBJECT_NAME": "IRIDIUM 33 DEB", "OBJECT_ID": "1997-051JZ", "EPOCH": "2025-12-20T18:30:44.390304", "MEAN_MOTION": 14.11711756, "ECCENTRICITY": 0.01801632, "INCLINATION": 86.3909, "RA_OF_ASC_NODE": 278.7029, "ARG_OF_PERICENTER": 273.7379, "MEAN_ANOMALY": 84.3221, "EPHEMERIS_TYPE": 0, "CLASSIFICATION_TYPE": "U", "NORAD_CAT_ID": 34648, "ELEMENT_SET_NO": 999, "REV_AT_EPOCH": 85074, "BSTAR": 0.004164738, "MEAN_MOTION_DOT": 8.851e-05, "MEAN_MOTION_DDOT": 0}, "tle": {"line1": "1 34648U 97051JZ  25354.77134711  .00008851  00000+0  41647-2 0  9992", "line2": "2 34648  86.3909 278.7029 0180163 273.7379  84.3221 14.11711756850742"}}, "geometry": {"type": "Point", "coordinates": [100.9591346340558, -34.05842916655967]}}, {"type": "Feature", "properties": {"norad_id": 34651, "name": "IRIDIUM 33 DEB", "group": "iridium-33-debris", "lat": -10.644322608143556, "lon": 136.26131552868762, "alt_km": 910.9237530460487, "timestamp": "2025-12-21T05:44:51.972721+00:00", "meta": {"OBJECT_NAME": "IRIDIUM 33 DEB", "OBJECT_ID": "1997-051KC", "EPOCH": "2025-12-19T16:44:48.420096", "MEAN_MOTION": 14.25922062, "ECCENTRICITY": 0.01422464, "INCLINATION": 86.2827, "RA_OF_ASC_NODE": 137.6175, "ARG_OF_PERICENTER": 181.9677, "MEAN_ANOMALY": 178.0974, "EPHEMERIS_TYPE": 0, "CLASSIFICATION_TYPE": "U", "NORAD_CAT_ID": 34651, "ELEMENT_SET_NO": 999, "REV_AT_EPOCH": 85995, "BSTAR": 0.0022061693, "MEAN_MOTION_DOT": 5.865e-05, "MEAN_MOTION_DDOT": 0}, "tle": {"line1": "1 34651U 97051KC  25353.69778264  .00005865  00000+0  22062-2 0  9995", "line2": "2 34651  86.2827 137.6175 0142246 181.9677 178.0974 14.25922062859957"}}, "geometry": {"type": "Point", "coordinates": [136.26131552868762, -10.644322608143556]}}, {"type": "Feature", "properties": {"norad_id": 34652, "name": "IRIDIUM 33 DEB", "group": "iridium-33-debris", "lat": 66.5134451421838, "lon": -15.2923625891216, "alt_km": 696.7998431532906, "timestamp": "2025-12-21T05:44:51.972732+00:00", "meta": {"OBJECT_NAME": "IRIDIUM 33 DEB", "OBJECT_ID": "1997-051KD", "EPOCH": "2025-12-20T16:52:48.078336", "MEAN_MOTION": 14.62123856, "ECCENTRICITY": 0.00255005, "INCLINATION": 86.3312, "RA_OF_ASC_NODE": 336.455, "ARG_OF_PERICENTER": 269.1159, "MEAN_ANOMALY": 217.3003, "EPHEMERIS_TYPE": 0, "CLASSIFICATION_TYPE": "U", "NORAD_CAT_ID": 34652, "ELEMENT_SET_NO": 999, "REV_AT_EPOCH": 88600, "BSTAR": 0.00058363699, "MEAN_MOTION_DOT": 2.968e-05, "MEAN_MOTION_DDOT": 0}, "tle": {"line1": "1 34652U 97051KD  25354.70333424  .00002968  00000+0  58364-3 0  9990", "line2": "2 34652  86.3312 336.4550 0025500 269.1159 217.3003 14.62123856886002"}}, "geometry": {"type": "Point", "coordinates": [-15.2923625891216, 66.5134451421838]}}, {"type": "Feature", "properties": {"norad_id": 34690, "name": "IRIDIUM 33 DEB", "group": "iridium-33-debris", "lat": 75.74020199474782, "lon": 47.731265305306124, "alt_km": 700.0203856038179, "timestamp": "2025-12-21T05:44:51.972752+00:00", "meta": {"OBJECT_NAME": "IRIDIUM 33 DEB", "OBJECT_ID": "1997-051KM", "EPOCH": "2025-12-20T09:52:33.180096", "MEAN_MOTION": 14.55121329, "ECCENTRICITY": 0.0009919, "INCLINATION": 86.3775, "RA_OF_ASC_NODE": 33.6571, "ARG_OF_PERICENTER": 4.2918, "MEAN_ANOMALY": 57.2138, "EPHEMERIS_TYPE": 0, "CLASSIFICATION_TYPE": "U", "NORAD_CAT_ID": 34690, "ELEMENT_SET_NO": 999, "REV_AT_EPOCH": 88206, "BSTAR": 0.00029381074, "MEAN_MOTION_DOT": 1.29e-05, "MEAN_MOTION_DDOT": 0}, "tle": {"line1": "1 34690U 97051KM  25354.41149514  .00001290  00000+0  29381-3 0  9999", "line2": "2 34690  86.3775  33.6571 0009919   4.2918  57.2138 14.55121329882060"}}, "geometry": {"type": "Point", "coordinates": [47.731265305306124, 75.74020199474782]}}, {"type": "Feature", "properties": {"norad_id": 34693, "name": "IRIDIUM 33 DEB", "group": "iridium-33-debris", "lat": -40.23850515067328, "lon": 122.73174190670132, "alt_km": 491.42211990512715, "timestamp": "2025-12-21T05:44:51.972768+00:00", "meta": {"OBJECT_NAME": "IRIDIUM 33 DEB", "OBJECT_ID": "1997-051KQ", "EPOCH": "2025-12-20T07:28:21.213696", "MEAN_MOTION": 15.29654599, "ECCENTRICITY": 0.00122944, "INCLINATION": 86.3023, "RA_OF_ASC_NODE": 300.0572, "ARG_OF_PERICENTER": 39.2143, "MEAN_ANOMALY": 113.2582, "EPHEMERIS_TYPE": 0, "CLASSIFICATION_TYPE": "U", "NORAD_CAT_ID": 34693, "ELEMENT_SET_NO": 999, "REV_AT_EPOCH": 89030, "BSTAR": 0.0032074262, "MEAN_MOTION_DOT": 0.00093319, "MEAN_MOTION_DDOT": 0}, "tle": {"line1": "1 34693U 97051KQ  25354.31135664  .00093319  00000+0  32074-2 0  9997", "line2": "2 34693  86.3023 300.0572 0012294  39.2143 113.2582 15.29654599890303"}}, "geometry": {"type": "Point", "coordinates": [122.73174190670132, -40.23850515067328]}}, {"type": "Feature", "properties": {"norad_id": 34696, "name": "IRIDIUM 33 DEB", "group": "iridium-33-debris", "lat": 13.241678611352341, "lon": -157.3342511557844, "alt_km": 630.6500817495344, "timestamp": "2025-12-21T05:44:51.972778+00:00", "meta": {"OBJECT_NAME": "IRIDIUM 33 DEB", "OBJECT_ID": "1997-051KT", "EPOCH": "2025-12-20T03:03:36.896832", "MEAN_MOTION": 14.65425134, "ECCENTRICITY": 0.0073881, "INCLINATION": 86.1833, "RA_OF_ASC_NODE": 24.0835, "ARG_OF_PERICENTER": 142.6074, "MEAN_ANOMALY": 281.0712, "EPHEMERIS_TYPE": 0, "CLASSIFICATION_TYPE": "U", "NORAD_CAT_ID": 34696, "ELEMENT_SET_NO": 999, "REV_AT_EPOCH": 86781, "BSTAR": 0.0025217059, "MEAN_MOTION_DOT": 0.00014237, "MEAN_MOTION_DDOT": 0}, "tle": {"line1": "1 34696U 97051KT  25354.12751038  .00014237  00000+0  25217-2 0  9991", "line2": "2 34696  86.1833  24.0835 0073881 142.6074 281.0712 14.65425134867818"}}, "geometry": {"type": "Point", "coordinates": [-157.3342511557844, 13.241678611352341]}}, {"type": "Feature", "properties": {"norad_id": 34765, "name": "IRIDIUM 33 DEB", "group": "iridium-33-debris", "lat": 17.48208758766277, "lon": 30.270101309830018, "alt_km": 768.521139588529, "timestamp": "2025-12-21T05:44:51.972789+00:00", "meta": {"OBJECT_NAME": "IRIDIUM 33 DEB", "OBJECT_ID": "1997-051LJ", "EPOCH": "2025-12-18T13:21:25.941600", "MEAN_MOTION": 14.40479279, "ECCENTRICITY": 0.00160914, "INCLINATION": 86.3386, "RA_OF_ASC_NODE": 30.2656, "ARG_OF_PERICENTER": 191.4295, "MEAN_ANOMALY": 322.071, "EPHEMERIS_TYPE": 0, "CLASSIFICATION_TYPE": "U", "NORAD_CAT_ID": 34765, "ELEMENT_SET_NO": 999, "REV_AT_EPOCH": 87697, "BSTAR": 0.00029987235, "MEAN_MOTION_DOT": 9.74e-06, "MEAN_MOTION_DDOT": 0}, "tle": {"line1": "1 34765U 97051LJ  25352.55655025  .00000974  00000+0  29987-3 0  9994", "line2": "2 34765  86.3386  30.2656 0016091 191.4295 322.0710 14.40479279876970"}}, "geometry": {"type": "Point", "coordinates": [30.270101309830018, 17.48208758766277]}}]}